{
  "type": "FeatureCollection",
  "features": [
    {
      "type": "Feature",
      "properties": {
        "norad_id": 66432,
        "name": "STARLINK-35446",
        "group": "last-30-days",
        "lat": -39.860637363473224,
        "lon": 14.945742611838732,
        "alt_km": 438.38535201049854,
        "timestamp": "2025-12-07T09:35:08.569429+00:00",
        "meta_object_name": "STARLINK-35446",
        "meta_object_id": "2025-259L",
        "meta_epoch": "2025-12-07T00:00:02.000160",
        "meta_mean_motion": 15.45160344,
        "meta_eccentricity": 0.0001178,
        "meta_inclination": 43.0011,
        "meta_ra_of_asc_node": 80.896,
        "meta_arg_of_pericenter": 276.0594,
        "meta_mean_anomaly": 310.976,
        "meta_ephemeris_type": 0,
        "meta_classification_type": "U",
        "meta_norad_cat_id": 66432,
        "meta_element_set_no": 999,
        "meta_rev_at_epoch": 535,
        "meta_bstar": -0.048203807,
        "meta_mean_motion_dot": -0.02077191,
        "meta_mean_motion_ddot": 0,
        "tle_line1": "1 66432U 25259L   25341.00002315 -.02077191  00000+0 -48204-1 0  9997",
        "tle_line2": "2 66432  43.0011  80.8960 0001178 276.0594 310.9760 15.45160344  5355"
      },
      "geometry": {
        "type": "Point",
        "coordinates": [
          14.945742611838732,
          -39.860637363473224
        ]
      }
    },
    {
      "type": "Feature",
      "properties": {
        "norad_id": 66433,
        "name": "STARLINK-35457",
        "group": "last-30-days",
        "lat": -28.832401840655592,
        "lon": 42.30706641157862,
        "alt_km": 410.87362311093057,
        "timestamp": "2025-12-07T09:35:08.569438+00:00",
        "meta_object_name": "STARLINK-35457",
        "meta_object_id": "2025-259M",
        "meta_epoch": "2025-12-06T16:46:43.862592",
        "meta_mean_motion": 15.50973931,
        "meta_eccentricity": 0.00075971,
        "meta_inclination": 42.9997,
        "meta_ra_of_asc_node": 82.6182,
        "meta_arg_of_pericenter": 324.7916,
        "meta_mean_anomaly": 35.2442,
        "meta_ephemeris_type": 0,
        "meta_classification_type": "U",
        "meta_norad_cat_id": 66433,
        "meta_element_set_no": 999,
        "meta_rev_at_epoch": 523,
        "meta_bstar": 0.0027243451,
        "meta_mean_motion_dot": 0.00165357,
        "meta_mean_motion_ddot": 0,
        "tle_line1": "1 66433U 25259M   25340.69911878  .00165357  00000+0  27243-2 0  9994",
        "tle_line2": "2 66433  42.9997  82.6182 0007597 324.7916  35.2442 15.50973931  5234"
      },
      "geometry": {
        "type": "Point",
        "coordinates": [
          42.30706641157862,
          -28.832401840655592
        ]
      }
    },
    {
      "type": "Feature",
      "properties": {
        "norad_id": 66434,
        "name": "STARLINK-35389",
        "group": "last-30-days",
        "lat": -33.31200370815488,
        "lon": 33.694330172293554,
        "alt_km": 430.3772617769682,
        "timestamp": "2025-12-07T09:35:08.569449+00:00",
        "meta_object_name": "STARLINK-35389",
        "meta_object_id": "2025-259N",
        "meta_epoch": "2025-12-07T00:00:02.000160",
        "meta_mean_motion": 15.47839743,
        "meta_eccentricity": 0.00012523,
        "meta_inclination": 43.0008,
        "meta_ra_of_asc_node": 80.8652,
        "meta_arg_of_pericenter": 268.0249,
        "meta_mean_anomaly": 331.5869,
        "meta_ephemeris_type": 0,
        "meta_classification_type": "U",
        "meta_norad_cat_id": 66434,
        "meta_element_set_no": 999,
        "meta_rev_at_epoch": 535,
        "meta_bstar": -0.044635774,
        "meta_mean_motion_dot": -0.02108106,
        "meta_mean_motion_ddot": 0,
        "tle_line1": "1 66434U 25259N   25341.00002315 -.02108106  00000+0 -44636-1 0  9995",
        "tle_line2": "2 66434  43.0008  80.8652 0001252 268.0249 331.5869 15.47839743  5359"
      },
      "geometry": {
        "type": "Point",
        "coordinates": [
          33.694330172293554,
          -33.31200370815488
        ]
      }
    },
    {
      "type": "Feature",
      "properties": {
        "norad_id": 66435,
        "name": "STARLINK-35502",
        "group": "last-30-days",
        "lat": -30.22302785626073,
        "lon": 39.83580111373156,
        "alt_km": 426.3628015845061,
        "timestamp": "2025-12-07T09:35:08.569459+00:00",
        "meta_object_name": "STARLINK-35502",
        "meta_object_id": "2025-259P",
        "meta_epoch": "2025-12-07T00:00:02.000160",
        "meta_mean_motion": 15.49168976,
        "meta_eccentricity": 0.00012993,
        "meta_inclination": 43.0011,
        "meta_ra_of_asc_node": 80.856,
        "meta_arg_of_pericenter": 266.1798,
        "meta_mean_anomaly": 337.5964,
        "meta_ephemeris_type": 0,
        "meta_classification_type": "U",
        "meta_norad_cat_id": 66435,
        "meta_element_set_no": 999,
        "meta_rev_at_epoch": 535,
        "meta_bstar": -0.042641307,
        "meta_mean_motion_dot": -0.02110691,
        "meta_mean_motion_ddot": 0,
        "tle_line1": "1 66435U 25259P   25341.00002315 -.02110691  00000+0 -42641-1 0  9992",
        "tle_line2": "2 66435  43.0011  80.8560 0001299 266.1798 337.5964 15.49168976  5358"
      },
      "geometry": {
        "type": "Point",
        "coordinates": [
          39.83580111373156,
          -30.22302785626073
        ]
      }
    },
    {
      "type": "Feature",
      "properties": {
        "norad_id": 66436,
        "name": "STARLINK-35501",
        "group": "last-30-days",
        "lat": -25.549787353827227,
        "lon": 47.64263269103122,
        "alt_km": 416.0134461485177,
        "timestamp": "2025-12-07T09:35:08.569470+00:00",
        "meta_object_name": "STARLINK-35501",
        "meta_object_id": "2025-259Q",
        "meta_epoch": "2025-12-06T16:45:00.432288",
        "meta_mean_motion": 15.50605966,
        "meta_eccentricity": 0.00014143,
        "meta_inclination": 43.0008,
        "meta_ra_of_asc_node": 82.6107,
        "meta_arg_of_pericenter": 280.4896,
        "meta_mean_anomaly": 79.5804,
        "meta_ephemeris_type": 0,
        "meta_classification_type": "U",
        "meta_norad_cat_id": 66436,
        "meta_element_set_no": 999,
        "meta_rev_at_epoch": 523,
        "meta_bstar": 0.0023641253,
        "meta_mean_motion_dot": 0.00141011,
        "meta_mean_motion_ddot": 0,
        "tle_line1": "1 66436U 25259Q   25340.69792167  .00141011  00000+0  23641-2 0  9994",
        "tle_line2": "2 66436  43.0008  82.6107 0001414 280.4896  79.5804 15.50605966  5239"
      },
      "geometry": {
        "type": "Point",
        "coordinates": [
          47.64263269103122,
          -25.549787353827227
        ]
      }
    },
    {
      "type": "Feature",
      "properties": {
        "norad_id": 66437,
        "name": "STARLINK-35474",
        "group": "last-30-days",
        "lat": -24.381051716330497,
        "lon": 49.39881794965027,
        "alt_km": 415.5002602486438,
        "timestamp": "2025-12-07T09:35:08.569482+00:00",
        "meta_object_name": "STARLINK-35474",
        "meta_object_id": "2025-259R",
        "meta_epoch": "2025-12-06T16:44:30.685632",
        "meta_mean_motion": 15.50622786,
        "meta_eccentricity": 0.00020021,
        "meta_inclination": 43.0007,
        "meta_ra_of_asc_node": 82.6072,
        "meta_arg_of_pericenter": 283.6406,
        "meta_mean_anomaly": 76.4231,
        "meta_ephemeris_type": 0,
        "meta_classification_type": "U",
        "meta_norad_cat_id": 66437,
        "meta_element_set_no": 999,
        "meta_rev_at_epoch": 523,
        "meta_bstar": 0.0025207389,
        "meta_mean_motion_dot": 0.00150655,
        "meta_mean_motion_ddot": 0,
        "tle_line1": "1 66437U 25259R   25340.69757738  .00150655  00000+0  25207-2 0  9994",
        "tle_line2": "2 66437  43.0007  82.6072 0002002 283.6406  76.4231 15.50622786  5235"
      },
      "geometry": {
        "type": "Point",
        "coordinates": [
          49.39881794965027,
          -24.381051716330497
        ]
      }
    },
    {
      "type": "Feature",
      "properties": {
        "norad_id": 66438,
        "name": "STARLINK-34681",
        "group": "last-30-days",
        "lat": -22.905778061699287,
        "lon": 51.53010752832403,
        "alt_km": 415.4811258288182,
        "timestamp": "2025-12-07T09:35:08.569492+00:00",
        "meta_object_name": "STARLINK-34681",
        "meta_object_id": "2025-259S",
        "meta_epoch": "2025-12-06T13:38:30.180768",
        "meta_mean_motion": 15.5073296,
        "meta_eccentricity": 0.00018147,
        "meta_inclination": 43.0007,
        "meta_ra_of_asc_node": 83.3579,
        "meta_arg_of_pericenter": 250.1755,
        "meta_mean_anomaly": 109.8909,
        "meta_ephemeris_type": 0,
        "meta_classification_type": "U",
        "meta_norad_cat_id": 66438,
        "meta_element_set_no": 999,
        "meta_rev_at_epoch": 510,
        "meta_bstar": 0.0029956602,
        "meta_mean_motion_dot": 0.00180499,
        "meta_mean_motion_ddot": 0,
        "tle_line1": "1 66438U 25259S   25340.56840487  .00180499  00000+0  29957-2 0  9990",
        "tle_line2": "2 66438  43.0007  83.3579 0001814 250.1755 109.8909 15.50732960  5107"
      },
      "geometry": {
        "type": "Point",
        "coordinates": [
          51.53010752832403,
          -22.905778061699287
        ]
      }
    }
  ]
}